[
  {
    "OBJECT_NAME": "STARLINK-31844",
    "OBJECT_ID": "24150A",
    "EPOCH": "2025-11-10T19:17:19.699872",
    "MEAN_MOTION": 15.30198307,
    "ECCENTRICITY": 0.0001513,
    "INCLINATION": 53.1574,
    "RA_OF_ASC_NODE": 138.94,
    "ARG_OF_PERICENTER": 92.5845,
    "MEAN_ANOMALY": 267.5329,
    "EPHEMERIS_TYPE": 0,
    "CLASSIFICATION_TYPE": "U",
    "NORAD_CAT_ID": 60583,
    "ELEMENT_SET_NO": 999,
    "REV_AT_EPOCH": 6984,
    "BSTAR": 6.289200000000001e-05,
    "MEAN_MOTION_DOT": 1.504e-05,
    "MEAN_MOTION_DDOT": 0.0,
    "TLE_LINE1": "1 60583U 24150A   25314.80370023  .00001504  00000+0  62892-4 0  9992",
    "TLE_LINE2": "2 60583  53.1574 138.9400 0001513  92.5845 267.5329 15.30198307 69845",
    "COMMENT": "Grouped by shell and plane from TLE"
  },
  {
    "OBJECT_NAME": "STARLINK-32204",
    "OBJECT_ID": "24150B",
    "EPOCH": "2025-11-11T05:19:39.764064",
    "MEAN_MOTION": 15.30175147,
    "ECCENTRICITY": 0.0001364,
    "INCLINATION": 53.156,
    "RA_OF_ASC_NODE": 137.2842,
    "ARG_OF_PERICENTER": 126.9787,
    "MEAN_ANOMALY": 233.1339,
    "EPHEMERIS_TYPE": 0,
    "CLASSIFICATION_TYPE": "U",
    "NORAD_CAT_ID": 60584,
    "ELEMENT_SET_NO": 999,
    "REV_AT_EPOCH": 6990,
    "BSTAR": 0.0,
    "MEAN_MOTION_DOT": -1.727e-05,
    "MEAN_MOTION_DDOT": 0.0,
    "TLE_LINE1": "1 60584U 24150B   25315.22198801 -.00001727  00000+0 -46214-4 0  9991",
    "TLE_LINE2": "2 60584  53.1560 137.2842 0001364 126.9787 233.1339 15.30175147 69908",
    "COMMENT": "Grouped by shell and plane from TLE"
  },
  {
    "OBJECT_NAME": "STARLINK-32130",
    "OBJECT_ID": "24150C",
    "EPOCH": "2025-11-11T05:53:03.800832",
    "MEAN_MOTION": 15.30200089,
    "ECCENTRICITY": 0.0001338,
    "INCLINATION": 53.1593,
    "RA_OF_ASC_NODE": 137.4278,
    "ARG_OF_PERICENTER": 86.5482,
    "MEAN_ANOMALY": 273.5671,
    "EPHEMERIS_TYPE": 0,
    "CLASSIFICATION_TYPE": "U",
    "NORAD_CAT_ID": 60585,
    "ELEMENT_SET_NO": 999,
    "REV_AT_EPOCH": 6982,
    "BSTAR": 4.0975e-05,
    "MEAN_MOTION_DOT": 8.55e-06,
    "MEAN_MOTION_DDOT": 0.0,
    "TLE_LINE1": "1 60585U 24150C   25315.24518288  .00000855  00000+0  40975-4 0  9996",
    "TLE_LINE2": "2 60585  53.1593 137.4278 0001338  86.5482 273.5671 15.30200089 69826",
    "COMMENT": "Grouped by shell and plane from TLE"
  },
  {
    "OBJECT_NAME": "STARLINK-32173",
    "OBJECT_ID": "24150D",
    "EPOCH": "2025-11-11T05:01:24.741696",
    "MEAN_MOTION": 15.30199663,
    "ECCENTRICITY": 0.0001125,
    "INCLINATION": 53.164,
    "RA_OF_ASC_NODE": 137.2042,
    "ARG_OF_PERICENTER": 106.8451,
    "MEAN_ANOMALY": 253.2674,
    "EPHEMERIS_TYPE": 0,
    "CLASSIFICATION_TYPE": "U",
    "NORAD_CAT_ID": 60586,
    "ELEMENT_SET_NO": 999,
    "REV_AT_EPOCH": 6990,
    "BSTAR": 6.1006000000000005e-05,
    "MEAN_MOTION_DOT": 1.448e-05,
    "MEAN_MOTION_DDOT": 0.0,
    "TLE_LINE1": "1 60586U 24150D   25315.20931414  .00001448  00000+0  61006-4 0  9990",
    "TLE_LINE2": "2 60586  53.1640 137.2042 0001125 106.8451 253.2674 15.30199663 69905",
    "COMMENT": "Grouped by shell and plane from TLE"
  },
  {
    "OBJECT_NAME": "STARLINK-31911",
    "OBJECT_ID": "24150E",
    "EPOCH": "2025-11-11T05:39:23.624640",
    "MEAN_MOTION": 15.3019215,
    "ECCENTRICITY": 0.0001379,
    "INCLINATION": 53.1567,
    "RA_OF_ASC_NODE": 137.3694,
    "ARG_OF_PERICENTER": 63.2721,
    "MEAN_ANOMALY": 296.8421,
    "EPHEMERIS_TYPE": 0,
    "CLASSIFICATION_TYPE": "U",
    "NORAD_CAT_ID": 60587,
    "ELEMENT_SET_NO": 999,
    "REV_AT_EPOCH": 6982,
    "BSTAR": 0.0,
    "MEAN_MOTION_DOT": -4.08e-06,
    "MEAN_MOTION_DDOT": 0.0,
    "TLE_LINE1": "1 60587U 24150E   25315.23569010 -.00000408  00000+0 -16338-5 0  9999",
    "TLE_LINE2": "2 60587  53.1567 137.3694 0001379  63.2721 296.8421 15.30192150 69823",
    "COMMENT": "Grouped by shell and plane from TLE"
  },
  {
    "OBJECT_NAME": "STARLINK-31994",
    "OBJECT_ID": "24150F",
    "EPOCH": "2025-11-11T04:50:45.516480",
    "MEAN_MOTION": 15.30198538,
    "ECCENTRICITY": 0.0001018,
    "INCLINATION": 53.1577,
    "RA_OF_ASC_NODE": 137.1532,
    "ARG_OF_PERICENTER": 82.4197,
    "MEAN_ANOMALY": 277.6919,
    "EPHEMERIS_TYPE": 0,
    "CLASSIFICATION_TYPE": "U",
    "NORAD_CAT_ID": 60588,
    "ELEMENT_SET_NO": 999,
    "REV_AT_EPOCH": 6982,
    "BSTAR": 7.4455e-05,
    "MEAN_MOTION_DOT": 1.847e-05,
    "MEAN_MOTION_DDOT": 0.0,
    "TLE_LINE1": "1 60588U 24150F   25315.20191570  .00001847  00000+0  74455-4 0  9998",
    "TLE_LINE2": "2 60588  53.1577 137.1532 0001018  82.4197 277.6919 15.30198538 69829",
    "COMMENT": "Grouped by shell and plane from TLE"
  },
  {
    "OBJECT_NAME": "STARLINK-32169",
    "OBJECT_ID": "24150G",
    "EPOCH": "2025-11-10T19:11:24.698688",
    "MEAN_MOTION": 15.30199414,
    "ECCENTRICITY": 0.0001076,
    "INCLINATION": 53.1577,
    "RA_OF_ASC_NODE": 139.6223,
    "ARG_OF_PERICENTER": 82.882,
    "MEAN_ANOMALY": 277.2303,
    "EPHEMERIS_TYPE": 0,
    "CLASSIFICATION_TYPE": "U",
    "NORAD_CAT_ID": 60589,
    "ELEMENT_SET_NO": 999,
    "REV_AT_EPOCH": 6983,
    "BSTAR": 8.5047e-05,
    "MEAN_MOTION_DOT": 2.16e-05,
    "MEAN_MOTION_DDOT": 0.0,
    "TLE_LINE1": "1 60589U 24150G   25314.79959142  .00002160  00000+0  85047-4 0  9997",
    "TLE_LINE2": "2 60589  53.1577 139.6223 0001076  82.8820 277.2303 15.30199414 69833",
    "COMMENT": "Grouped by shell and plane from TLE"
  },
  {
    "OBJECT_NAME": "STARLINK-32209",
    "OBJECT_ID": "24150H",
    "EPOCH": "2025-11-11T05:08:59.975520",
    "MEAN_MOTION": 15.30195326,
    "ECCENTRICITY": 0.0001207,
    "INCLINATION": 53.1602,
    "RA_OF_ASC_NODE": 137.2367,
    "ARG_OF_PERICENTER": 94.0773,
    "MEAN_ANOMALY": 266.0366,
    "EPHEMERIS_TYPE": 0,
    "CLASSIFICATION_TYPE": "U",
    "NORAD_CAT_ID": 60590,
    "ELEMENT_SET_NO": 999,
    "REV_AT_EPOCH": 6990,
    "BSTAR": 1.9098000000000002e-05,
    "MEAN_MOTION_DOT": 2.06e-06,
    "MEAN_MOTION_DDOT": 0.0,
    "TLE_LINE1": "1 60590U 24150H   25315.21458305  .00000206  00000+0  19098-4 0  9994",
    "TLE_LINE2": "2 60590  53.1602 137.2367 0001207  94.0773 266.0366 15.30195326 69906",
    "COMMENT": "Grouped by shell and plane from TLE"
  },
  {
    "OBJECT_NAME": "STARLINK-32170",
    "OBJECT_ID": "24150J",
    "EPOCH": "2025-11-10T22:11:54.886848",
    "MEAN_MOTION": 15.30200106,
    "ECCENTRICITY": 0.0001385,
    "INCLINATION": 53.1621,
    "RA_OF_ASC_NODE": 138.9828,
    "ARG_OF_PERICENTER": 84.1773,
    "MEAN_ANOMALY": 275.9386,
    "EPHEMERIS_TYPE": 0,
    "CLASSIFICATION_TYPE": "U",
    "NORAD_CAT_ID": 60591,
    "ELEMENT_SET_NO": 999,
    "REV_AT_EPOCH": 6977,
    "BSTAR": 4.5765e-05,
    "MEAN_MOTION_DOT": 9.96e-06,
    "MEAN_MOTION_DDOT": 0.0,
    "TLE_LINE1": "1 60591U 24150J   25314.92494082  .00000996  00000+0  45765-4 0  9990",
    "TLE_LINE2": "2 60591  53.1621 138.9828 0001385  84.1773 275.9386 15.30200106 69774",
    "COMMENT": "Grouped by shell and plane from TLE"
  },
  {
    "OBJECT_NAME": "STARLINK-31497",
    "OBJECT_ID": "24150K",
    "EPOCH": "2025-11-11T05:28:45.343776",
    "MEAN_MOTION": 15.30192528,
    "ECCENTRICITY": 0.0001344,
    "INCLINATION": 53.1596,
    "RA_OF_ASC_NODE": 137.3221,
    "ARG_OF_PERICENTER": 85.904,
    "MEAN_ANOMALY": 274.2114,
    "EPHEMERIS_TYPE": 0,
    "CLASSIFICATION_TYPE": "U",
    "NORAD_CAT_ID": 60592,
    "ELEMENT_SET_NO": 999,
    "REV_AT_EPOCH": 6990,
    "BSTAR": 5.2503e-05,
    "MEAN_MOTION_DOT": 1.196e-05,
    "MEAN_MOTION_DDOT": 0.0,
    "TLE_LINE1": "1 60592U 24150K   25315.22830259  .00001196  00000+0  52503-4 0  9996",
    "TLE_LINE2": "2 60592  53.1596 137.3221 0001344  85.9040 274.2114 15.30192528 69901",
    "COMMENT": "Grouped by shell and plane from TLE"
  },
  {
    "OBJECT_NAME": "STARLINK-32161",
    "OBJECT_ID": "24150L",
    "EPOCH": "2025-11-11T05:05:57.690528",
    "MEAN_MOTION": 15.3019472,
    "ECCENTRICITY": 0.0001267,
    "INCLINATION": 53.1595,
    "RA_OF_ASC_NODE": 137.2218,
    "ARG_OF_PERICENTER": 92.3837,
    "MEAN_ANOMALY": 267.7309,
    "EPHEMERIS_TYPE": 0,
    "CLASSIFICATION_TYPE": "U",
    "NORAD_CAT_ID": 60593,
    "ELEMENT_SET_NO": 999,
    "REV_AT_EPOCH": 6982,
    "BSTAR": 3.8845000000000005e-05,
    "MEAN_MOTION_DOT": 7.91e-06,
    "MEAN_MOTION_DDOT": 0.0,
    "TLE_LINE1": "1 60593U 24150L   25315.21247327  .00000791  00000+0  38845-4 0  9997",
    "TLE_LINE2": "2 60593  53.1595 137.2218 0001267  92.3837 267.7309 15.30194720 69826",
    "COMMENT": "Grouped by shell and plane from TLE"
  },
  {
    "OBJECT_NAME": "STARLINK-32210",
    "OBJECT_ID": "24150M",
    "EPOCH": "2025-11-10T19:21:53.120448",
    "MEAN_MOTION": 15.30199888,
    "ECCENTRICITY": 0.0001119,
    "INCLINATION": 53.1594,
    "RA_OF_ASC_NODE": 138.9535,
    "ARG_OF_PERICENTER": 84.054,
    "MEAN_ANOMALY": 276.0589,
    "EPHEMERIS_TYPE": 0,
    "CLASSIFICATION_TYPE": "U",
    "NORAD_CAT_ID": 60594,
    "ELEMENT_SET_NO": 999,
    "REV_AT_EPOCH": 6984,
    "BSTAR": 2.7728999999999998e-05,
    "MEAN_MOTION_DOT": 4.62e-06,
    "MEAN_MOTION_DDOT": 0.0,
    "TLE_LINE1": "1 60594U 24150M   25314.80686482  .00000462  00000+0  27729-4 0  9995",
    "TLE_LINE2": "2 60594  53.1594 138.9535 0001119  84.0540 276.0589 15.30199888 69846",
    "COMMENT": "Grouped by shell and plane from TLE"
  },
  {
    "OBJECT_NAME": "STARLINK-32202",
    "OBJECT_ID": "24150N",
    "EPOCH": "2025-11-11T05:48:31.154400",
    "MEAN_MOTION": 15.30188303,
    "ECCENTRICITY": 0.0001,
    "INCLINATION": 53.1594,
    "RA_OF_ASC_NODE": 137.4064,
    "ARG_OF_PERICENTER": 98.3407,
    "MEAN_ANOMALY": 261.7707,
    "EPHEMERIS_TYPE": 0,
    "CLASSIFICATION_TYPE": "U",
    "NORAD_CAT_ID": 60595,
    "ELEMENT_SET_NO": 999,
    "REV_AT_EPOCH": 6990,
    "BSTAR": 0.0,
    "MEAN_MOTION_DOT": -6.69e-06,
    "MEAN_MOTION_DDOT": 0.0,
    "TLE_LINE1": "1 60595U 24150N   25315.24202725 -.00000669  00000+0 -10481-4 0  9997",
    "TLE_LINE2": "2 60595  53.1594 137.4064 0001000  98.3407 261.7707 15.30188303 69907",
    "COMMENT": "Grouped by shell and plane from TLE"
  }
]